CZ-4B R/B               
1 28415U 04035C   25278.06401833  .00010892  00000+0  42059-3 0  9993
2 28415  97.3714 309.3627 0035350 156.9517 203.3316 15.25847837156159
CZ-2C R/B               
1 28480U 04046B   25278.02902088  .00000442  00000+0  18047-3 0  9991
2 28480  98.1920 197.7009 0138294 255.1281 103.4550 14.26896231 86304
ARIANE 5 R/B            
1 28499U 04049H   25277.85258515  .00002578  00000+0  29141-3 0  9992
2 28499  98.2481  75.6951 0085768 135.5081 225.3062 14.84793181122669
CZ-2D R/B               
1 28738U 05024B   25278.13566927  .00032597  00000+0  61031-3 0  9991
2 28738  97.3693 283.9901 0003893 208.9200 151.1836 15.48624375115628
ALOS (DAICHI)           
1 28931U 06002A   25278.11904069  .00003005  00000+0  51916-3 0  9997
2 28931  98.0961 230.1515 0002358  78.6817 281.4654 14.69141875 50630
H-2A R/B                
1 28932U 06002B   25278.03479046  .00013217  00000+0  72574-3 0  9990
2 28932  98.2252  47.3028 0057041  50.6309 309.9953 15.12860279 70879
RESURS-DK 1             
1 29228U 06021A   25278.15438841  .00003968  00000+0  23930-3 0  9995
2 29228  69.9323 279.0056 0005994 319.6540  40.4180 15.11589070 64016
CZ-4B R/B               
1 29507U 06046C   25278.09576517  .00007534  00000+0  40155-3 0  9999
2 29507  97.5849 318.4249 0036511  86.5271 274.0136 15.14893427 36470
CZ-2C R/B               
1 31114U 07010B   25278.16781560  .00000246  00000+0  13202-3 0  9998
2 31114  98.3919  34.2920 0059532  27.4855 332.9450 14.20171721957649
COSMO-SKYMED 1          
1 31598U 07023A   25278.20246902  .00005546  00000+0  51142-3 0  9992
2 31598  97.8882 103.1773 0001527  88.4083 271.7312 14.95075095991656
COSMOS 2428             
1 31792U 07029A   25278.13534300 -.00000143  00000+0 -51178-4 0  9998
2 31792  70.9417 169.9014 0002515 182.7255 177.3853 14.12901499942127
SL-16 R/B               
1 31793U 07029B   25278.04132757  .00000378  00000+0  22101-3 0  9990
2 31793  70.9743 139.5630 0002428 264.7818 262.5503 14.14798860943359
KORONAS-FOTON           
1 33504U 09003A   25277.88124610  .00018603  00000+0  48114-3 0  9998
2 33504  82.4284  77.3175 0011785   1.9395 358.1893 15.38889808921742
CZ-2C R/B               
1 37731U 11030B   25278.21269853  .00002127  00000+0  27740-3 0  9990
2 37731  97.8284 233.9013 0054330 135.0257 317.1692 14.80552532767082
H-2A R/B                
1 38341U 12025E   25277.86014966  .00005264  00000+0  49271-3 0  9994
2 38341  98.4463 227.8673 0047294 101.7823 258.8705 14.93714015724944
SHIJIAN-16 (SJ-16)      
1 39358U 13057A   25278.13116417  .00001712  00000+0  17284-3 0  9997
2 39358  74.9703 119.4340 0016284 132.7349 227.5213 14.91651043648309
SL-4 R/B                
1 39679U 14021B   25277.75138652  .00021617  00000+0  54525-3 0  9992
2 39679  51.6097  15.2035 0107185 256.7096 102.1914 15.34036587632299
ALOS-2                  
1 39766U 14029A   25278.23095910  .00003408  00000+0  46304-3 0  9994
2 39766  97.9231  14.0537 0001457  95.3085 264.8293 14.79473555613881
YAOGAN-29               
1 41038U 15069A   25278.19259855  .00000931  00000+0  12198-3 0  9991
2 41038  98.0299 301.1150 0002730 113.0225 247.1276 14.82770218532832
ASTRO-H (HITOMI)        
1 41337U 16012A   25278.16390715  .00004721  00000+0  28755-3 0  9997
2 41337  31.0001 279.2487 0010218 210.4470 149.5575 15.08721424528717
HXMT (HUIYAN)           
1 42758U 17034A   25278.12341104  .00008915  00000+0  47234-3 0  9996
2 42758  43.0135 160.0767 0033969 330.4726  29.4203 15.15132489458923
CZ-2C R/B               
1 43521U 18054D   25278.12202012  .00071516  00000+0  79232-3 0  9992
2 43521  35.1367 281.3614 0030769 209.9508 149.9460 15.61179465404281
SAOCOM 1A               
1 43641U 18076A   25278.14868061  .00000991  00000+0  13107-3 0  9991
2 43641  97.8893 103.5566 0001336  87.7428 272.3938 14.82161265378322
H-2A R/B                
1 43682U 18084L   25278.08147390  .00026204  00000+0  78565-3 0  9997
2 43682  98.8827  98.1160 0029551 199.9905 160.0178 15.34045264381869
SAOCOM 1B               
1 46265U 20059A   25278.17994880  .00000966  00000+0  12797-3 0  9998
2 46265  97.8882 102.6925 0001342  91.6531 268.4836 14.82143564275714
CSS (TIANHE)            
1 48274U 21035A   25277.89535223  .00038460  00000+0  44587-3 0  9997
2 48274  41.4643  75.2023 0002243 190.2146 169.8648 15.61049079253275
COSMOS 2550             
1 48865U 21056A   25274.93251727 -.00000193  00000+0 -27067-7 0  9994
2 48865  67.1409 161.1988 0008404 269.6010  90.4182 15.33830343239117
CZ-2C R/B               
1 52794U 22058K   25278.04228382  .00030223  00000+0  62458-3 0  9994
2 52794  50.1933  32.6523 0053140 271.5160  87.9719 15.43994073186007
GSLV R/B                
1 54149U 22138AN  25278.08558231  .00005889  00000+0  52680-3 0  9998
2 54149  87.3830 218.4421 0022099   5.2556 354.8903 14.95520278160665
XRISM                   
1 57800U 23137A   25278.14505635  .00008183  00000+0  49496-3 0  9993
2 57800  31.0021 208.0631 0008677 275.1530  84.8118 15.09282945114258
ACS3                    
1 59588U 24077B   25277.90122144  .00028716  00000+0  26670-1 0  9996
2 59588  97.3813 248.6383 0026071 331.5020  28.4712 13.81846961 72620
